[{"OBJECT_NAME":"STARLINK-30967","OBJECT_ID":"2023-180Q","EPOCH":"2026-03-09T22:28:24.978144","MEAN_MOTION":15.27595324,"ECCENTRICITY":0.00027232,"INCLINATION":43.0036,"RA_OF_ASC_NODE":51.1487,"ARG_OF_PERICENTER":303.7372,"MEAN_ANOMALY":56.322,"EPHEMERIS_TYPE":0,"CLASSIFICATION_TYPE":"U","NORAD_CAT_ID":58416,"ELEMENT_SET_NO":999,"REV_AT_EPOCH":12766,"BSTAR":0.00061815684,"MEAN_MOTION_DOT":0.00016796,"MEAN_MOTION_DDOT":0},{"OBJECT_NAME":"FLOCK 4G-31","OBJECT_ID":"2025-009AV","EPOCH":"2026-03-09T17:55:44.365728","MEAN_MOTION":15.26963037,"ECCENTRICITY":5.975e-5,"INCLINATION":97.4007,"RA_OF_ASC_NODE":151.027,"ARG_OF_PERICENTER":42.5998,"MEAN_ANOMALY":317.5288,"EPHEMERIS_TYPE":0,"CLASSIFICATION_TYPE":"U","NORAD_CAT_ID":62652,"ELEMENT_SET_NO":999,"REV_AT_EPOCH":6372,"BSTAR":0.00048078603,"MEAN_MOTION_DOT":0.00012662,"MEAN_MOTION_DDOT":0}]
